H1 CPF 01  gfz 2021 07 23 12  7042 tandemx   
H2 1003001  6202 36605    2021 07 23 12 59 42 2021 07 28 00 00 42   120 1 1  0 0 0
H9
10 0 59422  82062.000000  0    1314607.860  -1188707.024  -6663446.030
10 0 59422  82182.000000  0    1540310.000  -2040184.509  -6403635.501
10 0 59422  82302.000000  0    1724696.538  -2859895.235  -6032060.657
10 0 59422  82422.000000  0    1865236.705  -3632851.228  -5555129.235
10 0 59422  82542.000000  0    1960406.594  -4344810.225  -4981085.173
10 0 59422  82662.000000  0    2009702.714  -4982539.511  -4319875.594
10 0 59422  82782.000000  0    2013634.827  -5534066.163  -3582989.713
10 0 59422  82902.000000  0    1973697.495  -5988910.921  -2783268.519
10 0 59422  83022.000000  0    1892320.007  -6338298.710  -1934686.809
10 0 59422  83142.000000  0    1772795.776  -6575338.747  -1052110.115
10 0 59422  83262.000000  0    1619193.780  -6695171.872   -151033.036
10 0 59422  83382.000000  0    1436252.921  -6695077.544    752699.925
10 0 59422  83502.000000  0    1229261.428  -6574539.114   1643179.212
10 0 59422  83622.000000  0    1003924.737  -6335265.781   2504721.026
10 0 59422  83742.000000  0     766225.622  -5981166.432   3322152.639
10 0 59422  83862.000000  0     522278.661  -5518280.458   4081086.109
10 0 59422  83982.000000  0     278184.692  -4954667.181   4768175.366
10 0 59422  84102.000000  0      39887.944  -4300256.150   5371352.610
10 0 59422  84222.000000  0    -186960.098  -3566662.092   5880039.002
10 0 59422  84342.000000  0    -397126.875  -2766968.691   6285326.700
10 0 59422  84462.000000  0    -585913.319  -1915487.509   6580127.432
10 0 59422  84582.000000  0    -749254.040  -1027498.898   6759289.726
10 0 59422  84702.000000  0    -883801.511   -118976.168   6819684.870
10 0 59422  84822.000000  0    -986993.275    793702.699   6760258.647
10 0 59422  84942.000000  0   -1057100.109   1694050.084   6582048.323
10 0 59422  85062.000000  0   -1093254.639   2565765.901   6288165.508
10 0 59422  85182.000000  0   -1095460.764   3393032.684   5883745.345
10 0 59422  85302.000000  0   -1064583.594   4160804.573   5375861.862
10 0 59422  85422.000000  0   -1002319.111   4855084.620   4773410.290
10 0 59422  85542.000000  0    -911145.666   5463187.309   4086957.234
10 0 59422  85662.000000  0    -794256.408   5973978.250   3328558.280
10 0 59422  85782.000000  0    -655476.210   6378087.645   2511550.549
10 0 59422  85902.000000  0    -499163.120   6668094.880   1650315.511
10 0 59422  86022.000000  0    -330095.289   6838672.172    760020.282
10 0 59422  86142.000000  0    -153348.280   6886688.088   -143655.824
10 0 59422  86262.000000  0      25834.759   6811268.432  -1044805.774
10 0 59422  86382.000000  0     202176.803   6613810.164  -1927585.236
99
